SL-8 R/B                
1 19257U 88053B   26069.13711505  .00000285  00000+0  10093-3 0  9994
2 19257  74.0459 111.6416 0021432 290.8538  98.8982 14.38916031976666
COSMOS 1975             
1 19573U 88093A   26069.11771984  .00007305  00000+0  26510-3 0  9995
2 19573  82.5180 117.2554 0012137 162.0670 198.1000 15.28077885 19473
SL-14 R/B               
1 19574U 88093B   26068.99958683  .00000761  00000+0  84679-4 0  9994
2 19574  82.5306  41.7526 0021744  40.5230  23.6778 14.85656984  1065
SL-16 R/B               
1 19650U 88102B   26069.18747005  .00000309  00000+0  17995-3 0  9990
2 19650  71.0001 150.4502 0013986   0.9088 359.2058 14.16152371926966
INTERCOSMOS 24          
1 20261U 89080A   26069.12025862  .00000859  00000+0  25594-3 0  9994
2 20261  82.6026 104.1239 1186690 291.8200  56.0884 12.59558521666855
SL-14 R/B               
1 20262U 89080C   26069.19598931  .00000719  00000+0  21193-3 0  9990
2 20262  82.5975 172.8613 1230592 183.5927 175.5669 12.50494456660219
DELTA 1 R/B             
1 20323U 89089B   26069.10366902  .00000405  00000+0  10851-3 0  9990
2 20323  97.0705 276.4765 0070497 120.6902 240.1268 14.50663290895791
ARIANE 40 R/B           
1 20443U 90005H   26069.16098644  .00000328  00000+0  11796-3 0  9997
2 20443  98.3083 129.8085 0009885 197.1358 162.9498 14.39870849892879
DELTA 2 R/B(1)          
1 20453U 90008B   26068.37460026  .00064698  00000+0  75711-3 0  9997
2 20453  35.6039 176.9220 0085439 255.8292 103.2939 15.55957726926085
COSMOS 2058             
1 20465U 90010A   26069.17781480  .00005438  00000+0  32082-3 0  9993
2 20465  82.4669  46.9470 0009299 342.6811  17.4100 15.11327843942315
SL-14 R/B               
1 20466U 90010B   26069.02413076  .00000510  00000+0  58945-4 0  9994
2 20466  82.4987 267.0746 0018518 301.1743  58.7656 14.83569072928531
SL-14 R/B               
1 20511U 90018B   26069.17732073  .00000689  00000+0  83338-4 0  9991
2 20511  82.5203 222.6336 0017674  90.5578 269.7661 14.82145660922652
HST                     
1 20580U 90037B   26069.20376848  .00009369  00000+0  31039-3 0  9990
2 20580  28.4717  36.4910 0001862 130.7593 229.3165 15.29493470773395
SL-16 R/B               
1 20625U 90046B   26069.05064876 -.00000229  00000+0 -93426-4 0  9995
2 20625  70.9987 297.1567 0016219 299.1265  60.8233 14.15012282848443
COSMOS 2084             
1 20663U 90055A   26069.05403374  .00003135  00000+0  22931-3 0  9996
2 20663  62.7921 334.3358 0016997 190.1626 169.9134 15.05654461936370
SL-6 R/B(2)             
1 20666U 90055D   26068.90416148  .00002688  00000+0  20901-3 0  9992
2 20666  62.7825 253.1210 0024774 347.1508  12.8957 15.03595553938225
SL-8 R/B                
1 20775U 90078B   26068.97880098  .00018998  00000+0  55934-3 0  9999
2 20775  82.9006 251.0506 0362233  13.0250 348.0018 14.89071258809340
